     2.100          NAVIGATION                              RINEX VERSION / TYPE
fic2rin                                 09/07/2013 00:17:17 PGM / RUN BY / DATE
                                                            END OF HEADER
30 13  9  6 11 59 44.0  .293785706162D-05  .295585778076D-11  .000000000000D+00
     .370000000000D+02 -.598750000000D+02  .452554565000D-08  .207702580387D+01
    -.326707959175D-05  .896600668784D-02  .406242907047D-05  .515367672157D+04
     .475184000000D+06  .726431608200D-07 -.102120151790D+01 -.178813934326D-06
     .975712716591D+00  .309468750000D+03 -.178684194859D+01 -.812640992616D-08
    -.301083969927D-09  .100000000000D+01  .175600000000D+04  .000000000000D+00
     .240000000000D+01  .630000000000D+02 -.372529029846D-08  .370000000000D+02
     .474186000000D+06  .400000000000D+01
 3 13  9  6 11 59 44.0  .255851075053D-03  .500222085975D-11  .000000000000D+00
     .260000000000D+02 -.915625000000D+01  .572595279463D-08 -.110963568967D+01
    -.195577740669D-06  .167075684294D-01  .252388417721D-05  .515371338081D+04
     .475184000000D+06 -.912696123123D-07  .186827745005D+01  .420957803726D-06
     .935184073622D+00  .316312500000D+03  .132922419184D+01 -.901823278845D-08
    -.191436545529D-09  .100000000000D+01  .175600000000D+04  .000000000000D+00
     .240000000000D+01  .000000000000D+00 -.465661287308D-08  .260000000000D+02
     .474486000000D+06  .400000000000D+01
 3 13  9  6 13 59 44.0  .255886930972D-03  .500222085975D-11  .000000000000D+00
     .270000000000D+02 -.129062500000D+02  .583631453450D-08 -.594993798737D-01
    -.486150383949D-06  .167071629548D-01  .273622572422D-05  .515371217346D+04
     .482384000000D+06 -.201165676117D-06  .186821083315D+01  .128522515297D-06
     .935182342990D+00  .313000000000D+03  .132925477268D+01 -.921824111960D-08
    -.128576784311D-09  .100000000000D+01  .175600000000D+04  .000000000000D+00
     .240000000000D+01  .000000000000D+00 -.465661287308D-08  .270000000000D+02
     .475206000000D+06  .400000000000D+01
 7 13  9  6 13 59 44.0  .255639664829D-03  .420641299570D-11  .000000000000D+00
     .600000000000D+01 -.487187500000D+02  .397087968879D-08 -.160621995621D+01
    -.275857746601D-05  .690164882690D-02  .120140612125D-04  .515367413521D+04
     .482384000000D+06  .130385160446D-07 -.593665630042D-01 -.106170773506D-06
     .975332610975D+00  .154218750000D+03 -.288956591356D+01 -.768603443990D-08
    -.109647424398D-09  .100000000000D+01  .175600000000D+04  .000000000000D+00
     .240000000000D+01  .000000000000D+00 -.107102096081D-07  .600000000000D+01
     .475206000000D+06  .400000000000D+01
27 13  9  6 13 59 44.0 -.332528725266D-04 -.466116034659D-11  .000000000000D+00
     .100000000000D+01 -.380937500000D+02  .512842790532D-08  .386440877614D+00
    -.183843076229D-05  .422384124249D-03  .304915010929D-05  .515365783501D+04
     .482384000000D+06  .391155481339D-07  .201049322150D+01 -.130385160446D-07
     .960612144094D+00  .317500000000D+03  .938320523170D+00 -.858285751047D-08
    -.298226708054D-09  .100000000000D+01  .175600000000D+04  .000000000000D+00
     .240000000000D+01  .000000000000D+00  .186264514923D-08  .100000000000D+01
     .475206000000D+06  .400000000000D+01
30 13  9  6 13 59 44.0  .295881181955D-05  .295585778076D-11  .000000000000D+00
     .380000000000D+02 -.513125000000D+02  .450054460860D-08  .312712093252D+01
    -.280700623989D-05  .896508654114D-02  .388547778130D-05  .515367891312D+04
     .482384000000D+06  .182539224625D-06 -.102126017067D+01 -.115483999252D-06
     .975710590971D+00  .311437500000D+03 -.178675883144D+01 -.813641034272D-08
    -.252510518077D-09  .100000000000D+01  .175600000000D+04  .000000000000D+00
     .240000000000D+01  .630000000000D+02 -.372529029846D-08  .380000000000D+02
     .475206000000D+06  .400000000000D+01
 1 13  9  6 14  0  0.0  .717551447451D-04  .420641299570D-11  .000000000000D+00
     .101000000000D+03 -.611875000000D+02  .419017453759D-08 -.102268347439D+01
    -.316277146339D-05  .230824586470D-02  .122785568237D-04  .515369876862D+04
     .482400000000D+06  .745058059692D-07  .306328099717D+01 -.106170773506D-06
     .960905153419D+00  .144843750000D+03  .355833158428D+00 -.785389857497D-08
    -.416445918073D-09  .100000000000D+01  .175600000000D+04  .000000000000D+00
     .240000000000D+01  .000000000000D+00  .838190317154D-08  .101000000000D+03
     .475206000000D+06  .400000000000D+01
 2 13  9  6 14  0  0.0  .450053717941D-03  .181898940355D-11  .000000000000D+00
     .820000000000D+02 -.460937500000D+02  .488413201513D-08 -.216978062373D+00
    -.245124101639D-05  .125626740046D-01  .110119581223D-04  .515372859764D+04
     .482400000000D+06  .875443220139D-07  .303942718747D+01  .182539224625D-06
     .939403964689D+00  .159187500000D+03 -.256159574888D+01 -.840749306298D-08
    -.370015412627D-09  .100000000000D+01  .175600000000D+04  .000000000000D+00
     .240000000000D+01  .000000000000D+00 -.172294676304D-07  .820000000000D+02
     .475206000000D+06  .400000000000D+01
 4 13  9  6 14  0  0.0  .179745256901D-06  .454747350886D-12  .000000000000D+00
     .670000000000D+02 -.635312500000D+02  .473519723997D-08  .304164654246D+01
    -.328384339809D-05  .105274693342D-01  .117179006338D-04  .515360771561D+04
     .482400000000D+06  .260770320892D-07  .305574922781D+01 -.109896063805D-06
     .938443706724D+00  .140750000000D+03  .101462420603D+01 -.795997442203D-08
    -.336442585613D-09  .100000000000D+01  .175600000000D+04  .000000000000D+00
     .240000000000D+01  .000000000000D+00 -.605359673500D-08  .670000000000D+02
     .475206000000D+06  .400000000000D+01
 5 13  9  6 14  0  0.0 -.399674754590D-03  .000000000000D+00  .000000000000D+00
     .910000000000D+02  .833437500000D+02  .478305637635D-08  .206195217540D+01
     .435672700405D-05  .323702779133D-02  .818632543087D-05  .515370052147D+04
     .482400000000D+06 -.521540641785D-07 -.217829340401D+01  .111758708954D-07
     .948257594644D+00  .217375000000D+03  .261005957111D+00 -.827105880851D-08
     .439661170795D-09  .100000000000D+01  .175600000000D+04  .000000000000D+00
     .240000000000D+01  .000000000000D+00 -.977888703346D-08  .910000000000D+02
     .475206000000D+06  .400000000000D+01
 6 13  9  6 14  0  0.0  .401721335948D-04  .192130755750D-10  .000000000000D+00
     .340000000000D+02 -.263437500000D+02  .558737559376D-08  .175927157649D+01
    -.115483999252D-05  .810795766301D-02  .250153243542D-05  .515367362022D+04
     .482400000000D+06  .838190317154D-07  .194848811165D+01  .115483999252D-06
     .941789065363D+00  .318593750000D+03 -.233274137376D+00 -.879500920458D-08
    -.329656588663D-09  .100000000000D+01  .175600000000D+04  .000000000000D+00
     .240000000000D+01  .000000000000D+00 -.512227416039D-08  .340000000000D+02
     .475206000000D+06  .400000000000D+01
 8 13  9  6 14  0  0.0  .826874747872D-05  .113686837722D-12  .000000000000D+00
     .650000000000D+02 -.348125000000D+02  .343657171843D-08 -.217414318296D+01
    -.212527811527D-05  .134103787132D-01  .130478292704D-04  .515370129013D+04
     .482400000000D+06  .167638063431D-07  .340873810191D-01 -.225380063057D-06
     .998246956627D+00  .149812500000D+03 -.284262993664D+01 -.735280627389D-08
     .210723063176D-10  .100000000000D+01  .175600000000D+04  .000000000000D+00
     .340000000000D+01  .000000000000D+00 -.372529029846D-08  .650000000000D+02
     .475206000000D+06  .400000000000D+01
 9 13  9  6 14  0  0.0  .266558490694D-03  .272848410532D-11  .000000000000D+00
     .300000000000D+02 -.467187500000D+02  .390266256156D-08 -.429005920104D+00
    -.268593430519D-05  .169061041670D-01  .121314078569D-04  .515372363281D+04
     .482400000000D+06 -.266358256340D-06 -.818368310954D-01  .614672899246D-07
     .983927775490D+00  .166875000000D+03  .172286186130D+01 -.792461580634D-08
    -.107861635727D-09  .100000000000D+01  .175600000000D+04  .000000000000D+00
     .340000000000D+01  .000000000000D+00 -.558793544769D-08  .300000000000D+02
     .475206000000D+06  .400000000000D+01
10 13  9  6 14  0  0.0 -.934614799917D-04 -.136424205266D-11  .000000000000D+00
     .330000000000D+02  .849687500000D+02  .485270213452D-08  .227995761734D+01
     .428035855293D-05  .127201674040D-01  .824593007565D-05  .515366141891D+04
     .482400000000D+06 -.135973095894D-06 -.215946772421D+01 -.266358256340D-06
     .943059735526D+00  .210937500000D+03  .813189815020D+00 -.821962809479D-08
     .522164607395D-09  .100000000000D+01  .175600000000D+04  .000000000000D+00
     .240000000000D+01  .000000000000D+00 -.232830643654D-08  .330000000000D+02
     .475206000000D+06  .400000000000D+01
11 13  9  6 14  0  0.0 -.417246483266D-03 -.341060513165D-11  .000000000000D+00
     .260000000000D+02 -.865000000000D+02  .614704176325D-08 -.137849449887D+01
    -.438280403614D-05  .145142709371D-01  .879727303982D-05  .515369053841D+04
     .482400000000D+06  .275671482086D-06  .275895637240D+01  .312924385071D-06
     .889680177928D+00  .168375000000D+03  .120591725100D+01 -.885822612353D-08
    -.596096258373D-09  .100000000000D+01  .175600000000D+04  .000000000000D+00
     .240000000000D+01  .000000000000D+00 -.116415321827D-07  .260000000000D+02
     .475206000000D+06  .400000000000D+01
12 13  9  6 14  0  0.0  .154796056449D-03  .216004991671D-11  .000000000000D+00
     .530000000000D+02  .871250000000D+02  .421731852539D-08 -.191490728504D+01
     .454485416412D-05  .452244805638D-02  .762008130550D-05  .515376960182D+04
     .482400000000D+06  .484287738800D-07  .999963260895D+00 -.521540641785D-07
     .985015636484D+00  .246000000000D+03  .332136220361D+00 -.793711632704D-08
     .573952478853D-09  .100000000000D+01  .175600000000D+04  .000000000000D+00
     .240000000000D+01  .000000000000D+00 -.116415321827D-07  .530000000000D+02
     .475206000000D+06  .400000000000D+01
